{"type":"FeatureCollection","features":[{"type":"Feature","properties":{},"geometry":{"type":"Polygon","coordinates":[[[-180,-85],[180,-85],[180,85],[-180,85],[-180,-85]],[[19.42135006095657,43.54340542462069],[19.416102191263178,43.54107393761217],[19.411700752687636,43.54291459263442],[19.40899217454927,43.54733193661963],[19.405775738459624,43.550767425076685],[19.40154358556805,43.55199433776852],[19.399512151964302,43.55457077312275],[19.405098593925004,43.55923261399397],[19.410346463618453,43.563280761997646],[19.418980055085513,43.56720597987214],[19.424058639094994,43.5652434028608],[19.42913722310442,43.560091335246966],[19.43252294487803,43.556411016255424],[19.43252294487803,43.55223971778878],[19.427782934035235,43.54745463652233],[19.42135006095657,43.54340542462069]],[[16.94537127706286,45.24539840341362],[16.939276977150826,45.235266385835075],[16.93876911830023,45.227994060377625],[16.947233424083322,45.22501332940169],[16.953158438311334,45.22572871940491],[16.959760597073966,45.2270402439122],[16.965008466767358,45.224297931304534],[16.97161062552999,45.223940228658705],[16.973980631401048,45.22656332893456],[16.972964914599174,45.23145151117836],[16.968732761707656,45.236696897843615],[16.96720918695445,45.24182260363028],[16.970594908728117,45.24504083386745],[16.980413503580394,45.24432568758044],[16.983629940569358,45.23931940996283],[16.985999945541096,45.233597410492166],[16.98769280687759,45.22847096276479],[16.989385668214084,45.221793965119446],[16.997172829462556,45.22250939559217],[17.001404982354074,45.226682558353446],[17.00196024087245,45.232085752655394],[17.005535564015133,45.23361171600794],[17.01799502255227,45.23353541842488],[17.02276211917649,45.23193315389199],[17.023953893557405,45.22964412567592],[17.02319549167862,45.22682086329223],[17.019728512560846,45.22239492718421],[17.017886679426738,45.219571305071725],[17.021678688820487,45.21766337356587],[17.027204187323434,45.21735809869733],[17.029262706708607,45.21964762154056],[17.032729685826382,45.22300542206261],[17.036846724596728,45.22292911009043],[17.038363528354182,45.219418673033374],[17.04540583061464,45.215068483224],[17.050281271263714,45.21109959786821],[17.053964937531873,45.20651977157024],[17.05667351477092,45.2001073949404],[17.059707122285943,45.19522128923114],[17.066424395169747,45.189494849807545],[17.070758120191158,45.18689867433443],[17.088079475587392,45.18326669390285],[17.102130224230507,45.17909034484359],[17.116519544241612,45.175033027352356],[17.13598744736288,45.16763364567623],[17.1458060422151,45.16309806512368],[17.155963210234006,45.15521961909019],[17.167183493823245,45.14733053317764],[17.189393832759208,45.1457258395759],[17.20542861353971,45.143509759867584],[17.226013806492006,45.140070844993545],[17.237281490648343,45.14435035168742],[17.245298881038593,45.14840030373108],[17.249415918909563,45.15351964231769],[17.251582781420268,45.166430557824015],[17.252449526424527,45.173228621303906],[17.256566565194873,45.17987313543688],[17.25960017181052,45.1847605586529],[17.264692298710656,45.18521873355775],[17.269676081585942,45.181629601325085],[17.276935070996785,45.17742926644752],[17.28191885387207,45.174297906223444],[17.28668595139561,45.17246483518403],[17.291994763647494,45.17483254058931],[17.29600345929225,45.17636004088325],[17.302937418427177,45.17521441970973],[17.306079369067675,45.170097029954036],[17.307487829699653,45.16597223273243],[17.31290498507707,45.16253467313669],[17.324233612691103,45.1622625238964],[17.326095759711563,45.15856212304362],[17.322371465670642,45.15545837650291],[17.317462168244504,45.15319014690783],[17.319832173216298,45.147340084877044],[17.32998934033583,45.14375811844246],[17.340315794038702,45.14089238287721],[17.362322989614313,45.138504159439435],[17.376373737358165,45.137429426426934],[17.389239482616063,45.13468279437552],[17.398550219517062,45.13372741398899],[17.404644519429098,45.1355187402977],[17.412262394993604,45.13814591720035],[17.420895986460664,45.14268348435536],[17.426143856154113,45.14650431252403],[17.432299099523846,45.15122745838056],[17.437066197047386,45.15443649035183],[17.44237500929927,45.15497131177665],[17.44432518555891,45.15351964231769],[17.443241754303585,45.14908800270922],[17.439774775185754,45.142439897583245],[17.438366314553832,45.13663172237614],[17.440424833939005,45.13013503700239],[17.448767253705853,45.12723039676547],[17.454942810961995,45.12646599371067],[17.45905984973234,45.12906492380722],[17.466860553871527,45.132657367343654],[17.47541965988944,45.138695221307444],[17.48202859054709,45.140605801316724],[17.48766243217557,45.14137001551387],[17.492646215950174,45.13991799981591],[17.491562784694793,45.134262428768125],[17.486470657794655,45.127612595145195],[17.4815952180449,45.12317894105536],[17.48018675741298,45.12004459867933],[17.486037285292525,45.11652781510662],[17.491671127820325,45.11423414279153],[17.496438224444546,45.11583972312479],[17.507597565475294,45.11713944492948],[17.528561958467662,45.11688619314333],[17.53567197608089,45.12011149205176],[17.5395655567051,45.126083788136384],[17.54464413981526,45.13313029202942],[17.549045579290123,45.137548842005515],[17.554293448983515,45.139340048704355],[17.559879890944273,45.1355187402977],[17.55852560187509,45.13265259014497],[17.55480130783411,45.12691985906429],[17.553785591032238,45.12190324643774],[17.557171312805906,45.1173640263288],[17.56377347156848,45.11808076981174],[17.569190627845273,45.120230944502566],[17.575115642073285,45.119514227999275],[17.582564231054448,45.11473589164814],[17.59170568137216,45.109479259859995],[17.59475283177784,45.10852345589285],[17.602370707342345,45.112466041474704],[17.606602860233863,45.11437750012158],[17.617437171888014,45.11593051328259],[17.62099218024497,45.12082820046112],[17.637412933859878,45.126800421002656],[17.647908673246718,45.130264022266886],[17.65874298490087,45.13313029202942],[17.667376577267305,45.13277201651539],[17.67431730739787,45.128591964947304],[17.67770303007086,45.1230977178854],[17.68295089976425,45.12011149205176],[17.695478072754895,45.1186780482534],[17.704788809655895,45.118200225859766],[17.71426883224086,45.11294391243166],[17.719008843083714,45.1093597849262],[17.724933857311726,45.10458059781638],[17.731326101718253,45.10008779801353],[17.739885207736222,45.09572848727993],[17.74714419624769,45.09167479495585],[17.757978507901896,45.088538722284284],[17.771954770196544,45.08456101637785],[17.77780529807609,45.08196005920939],[17.782897424976227,45.07813490710032],[17.794381795383572,45.07316182615739],[17.80185747014616,45.06749963789804],[17.804024332656866,45.06397961676595],[17.81128332116839,45.06068896592308],[17.821142544692748,45.05670932197768],[17.829051592856786,45.05196399883954],[17.842702824875516,45.05028008036146],[17.860254410312848,45.04982082087423],[17.869165631488727,45.05174394372807],[17.881862090163395,45.05688630675769],[17.89134211274836,45.062028207535775],[17.903700000054982,45.067408770398515],[17.913349308323973,45.07111508699171],[17.91825860575011,45.074223423672095],[17.9272307703838,45.078646535908945],[17.931293637591352,45.08127633253679],[17.934848645948307,45.088925960464735],[17.9340022148304,45.09346744236865],[17.930616493056732,45.09800856274501],[17.929431489671572,45.10398317188594],[17.932309353493906,45.10828450242792],[17.937049365236078,45.110076628233855],[17.952454402049057,45.11497481813342],[17.96802872544538,45.12094765111328],[17.973276595138827,45.12584490751652],[17.977678033714312,45.134085683207786],[17.984110906792978,45.14125060712985],[17.990882351239577,45.147817663554406],[17.997315223418866,45.149727937794125],[18.005102385566715,45.149727937794125],[18.0132281190825,45.149727937794125],[18.02067670806366,45.14447452917625],[18.02626315002442,45.14089238287721],[18.033542453321616,45.14125060712985],[18.040991042302835,45.14387752053119],[18.051148209422365,45.14375811844246],[18.06181323539255,45.14280288914205],[18.072816832730723,45.139340048704355],[18.077556844472838,45.13635467362934],[18.082804714166286,45.12799478992764],[18.086529009106528,45.122739379418874],[18.085851864571964,45.11855859310464],[18.082804714166286,45.116288894916636],[18.07450969406716,45.11342177889202],[18.071970402512136,45.10876240845846],[18.076202555403654,45.10649232086399],[18.08161971168039,45.105058534423904],[18.088221869543702,45.10039848140485],[18.091607592216633,45.09645506215145],[18.093977598087747,45.092630880410866],[18.100749042534346,45.08832836995833],[18.10650477107839,45.086894127562005],[18.11479979117746,45.08785029305665],[18.12123266335675,45.09000160718847],[18.13274411954552,45.09071869331308],[18.152381309250075,45.09000160718847],[18.157967751210776,45.087133170959135],[18.167617060379087,45.08247165384381],[18.180313519053698,45.080320056425535],[18.189276715647964,45.08123730016132],[18.191994260926435,45.08151539841697],[18.199781423074285,45.08725269175835],[18.21230859516561,45.09442349724668],[18.214340028769357,45.09705256722225],[18.217048606907724,45.10326625123656],[18.216879321223757,45.109718207929006],[18.214509315352643,45.11186869738253],[18.20418286164977,45.11569159129397],[18.197919275154447,45.11939477464921],[18.20079713987616,45.12536714537754],[18.204690720500423,45.127875354564026],[18.212985739700173,45.1303834531339],[18.219926470730115,45.13277201651539],[18.22754434629462,45.13516047917284],[18.2429493831076,45.136712926660266],[18.24938225618621,45.137668257584096],[18.25632298631683,45.138981811861186],[18.265464437533808,45.1394594606856],[18.275283032386085,45.13838474565955],[18.280192329812223,45.13301086745764],[18.28290090705127,45.122261590300184],[18.285778771772925,45.11831968190785],[18.29221164395227,45.115452667506645],[18.29644379684379,45.11748348417552],[18.300675949735364,45.117125109736094],[18.309309542101744,45.111629758306776],[18.314218839527882,45.10852345589285],[18.32369886211285,45.10553646743409],[18.336903179638057,45.10458059781638],[18.342658907282782,45.10661180119371],[18.356709655925954,45.1070897207141],[18.378378279234255,45.10744815810608],[18.385001598145266,45.112197237712394],[18.410394516393865,45.11107720764704],[18.42282646556896,45.107343614616184],[18.430497242853505,45.104729953624485],[18.434464886245564,45.09968898465894],[18.437374491639503,45.089979197881746],[18.442929192028657,45.08120162405578],[18.452451536709077,45.076532151537606],[18.45898068221277,45.073074025346045],[18.461973880490234,45.071488694147945],[18.47625739706126,45.06700524639507],[18.484457193344838,45.06401608607359],[18.489928401574502,45.062185525042025],[18.494508557024346,45.060653092866005],[18.502443843808408,45.061400442076774],[18.513553245485923,45.06177411308488],[18.518049907877014,45.05953205196266],[18.53233342444804,45.060279415562604],[18.53656557733956,45.06625797092869],[18.536301067840043,45.07391708130831],[18.532068914948525,45.08138839435895],[18.528894800055014,45.090352681830836],[18.53444950044417,45.09390065659011],[18.540797730231134,45.09408738642378],[18.54846850751568,45.09053942245646],[18.55455222690381,45.08493692669788],[18.560900456690774,45.076905723620314],[18.566984176978224,45.072422701246694],[18.575448482761317,45.07111508699171],[18.57782906915628,45.07429066957877],[18.572803386866838,45.08045453384972],[18.56592613808084,45.08624422439152],[18.564074571584285,45.092780267695275],[18.56724868647774,45.09614136962858],[18.572274367867806,45.09744841101542],[18.580474164151383,45.09464757052899],[18.59052552783089,45.09016594030595],[18.594228661723434,45.08568395754867],[18.60269296750647,45.07952065805199],[18.60798315839611,45.08064130775023],[18.614860407182107,45.0869912390545],[18.624118242363068,45.08736474278868],[18.62940843325265,45.085123685309895],[18.629143923753134,45.078213205674956],[18.626498827858654,45.07373028582407],[18.61935706957314,45.06962063318571],[18.61724099357707,45.06513703884332],[18.63073098075023,45.06382925821373],[18.641046853929197,45.062147781395026],[18.6526852746058,45.058784678470204],[18.65612389899877,45.065510685569734],[18.655859389499255,45.07298309849125],[18.652949784105317,45.079147103056414],[18.649246650212774,45.085123685309895],[18.654272332502217,45.089979197881746],[18.6635301667838,45.09165985631739],[18.674639568461373,45.0882984899834],[18.67966524985144,45.08269577389092],[18.681781326746886,45.076158577656315],[18.679929759350955,45.069060203565584],[18.675168587460405,45.06382925821373],[18.669084867172955,45.05897152251782],[18.670407415569798,45.053179068359384],[18.675697606459437,45.04682537968756],[18.68151681724737,45.042713792607515],[18.70696263721601,45.0359551976743],[18.71491908414845,45.03176805675048],[18.71932052362331,45.02770025496284],[18.724229821049448,45.02339285579569],[18.727276971455126,45.01968344643399],[18.727615543722436,45.01370002213838],[18.725922682385942,45.007117533347525],[18.725245537851322,45.00125249760475],[18.72472413611007,44.99736448558258],[18.731116380516596,44.994836178346986],[18.73924211403238,44.99452970917878],[18.74530932816299,44.997900778298344],[18.751484886318508,45.000352340987774],[18.758527188578967,45.00058216903193],[18.7713116764927,44.997058029904224],[18.778028949376562,44.995219262558976],[18.787563144423643,44.99177141381972],[18.79254692729893,44.987786975588506],[18.79503881918623,44.98426204865467],[18.79623059356709,44.98150325956783],[18.79503881918623,44.97912752951191],[18.79200521167121,44.97583199804831],[18.79025140777628,44.971439258614964],[18.785511396034167,44.96688808381805],[18.78548503150904,44.96656163980788],[18.785172823766857,44.96269589230167],[18.788219974172534,44.95706589617424],[18.796514994271604,44.949758055589825],[18.803455725301546,44.947002399740995],[18.811412172233986,44.943168222035865],[18.813612892421077,44.93921395875725],[18.80599501685657,44.936457795690785],[18.80040857489587,44.93442054707066],[18.79295998591465,44.932383225605406],[18.782633532211776,44.92842821948682],[18.774507798695993,44.93094507295683],[18.767228495398797,44.934660227187806],[18.760626336636165,44.937656144115806],[18.756902041695923,44.93501974556489],[18.755378466942773,44.929746585136854],[18.759102761883014,44.9212366018877],[18.76198062570535,44.91788020520738],[18.765027776111026,44.91368443348989],[18.76638206518021,44.90768994303647],[18.770921048767434,44.89805998368138],[18.7772692785544,44.89300079894775],[18.795784948017,44.888878170890905],[18.81112650258609,44.8808194539547],[18.82276492326264,44.87125997716629],[18.837841968332214,44.861136447389185],[18.855564108396948,44.85269881190072],[18.876989383253488,44.846885499766074],[18.900001715107123,44.84369730508661],[18.910053077887312,44.84613535276435],[18.92771173660742,44.84579028109664],[18.938376762577604,44.84699051989662],[18.95852181023338,44.84927090382922],[18.973418989095137,44.85311134711105],[18.987469736838932,44.852991337080596],[18.99390260901822,44.85515147895762],[18.997965476225772,44.85455144769122],[19.005874524389867,44.85242085214065],[19.006429782008865,44.85227127240137],[19.03351556159396,44.85095112969094],[19.04655059253588,44.85407141836134],[19.053829895833076,44.85503147342382],[19.059754910061088,44.858151540861],[19.065849209973123,44.8616314162569],[19.067203499042307,44.865471035759754],[19.0688963603788,44.869910275538814],[19.072959227586352,44.8727895998602],[19.07956138544961,44.875788742656425],[19.09547428111324,44.875788742656425],[19.102753584410436,44.87734823543275],[19.111387176776816,44.881666609026865],[19.11494218513377,44.886344482112236],[19.115788615352358,44.889702720604134],[19.123067918649554,44.89366039231328],[19.132547941234577,44.89330061493149],[19.14219725040283,44.89414009159202],[19.1443979696906,44.89785762542914],[19.148640703106025,44.9055542546252],[19.158956576284993,44.91211094006786],[19.16583382417167,44.91492071981543],[19.18117537874076,44.916793829571645],[19.19043321392172,44.91398414155492],[19.196781442809367,44.90143252678973],[19.20789084448694,44.89056473607377],[19.21926475566397,44.891876475518984],[19.227200042448032,44.89787261442967],[19.236457877628993,44.90480487204724],[19.247038260307534,44.90649096958265],[19.253650998694695,44.903680778844944],[19.25999922848166,44.899933642923315],[19.271373139658692,44.895062001909935],[19.280366464440817,44.898247352933026],[19.290417828120326,44.90012100587978],[19.299146643402935,44.895811512191585],[19.313959178972993,44.89018994810766],[19.321100937258507,44.88644193354844],[19.349064887734414,44.87950746269928],[19.36971779514016,44.87890768504167],[19.372595658962553,44.87626859122258],[19.368532791755,44.872549661637606],[19.364808496814703,44.868950468689206],[19.359052769170034,44.864751126663236],[19.35702133556623,44.86151142421289],[19.359899199388565,44.85875153435586],[19.363284922061553,44.85599151139917],[19.36413135317946,44.85323135714145],[19.362099919575655,44.85047106978408],[19.35647284894287,44.8492324982812],[19.351055692666137,44.84715855102638],[19.342171557271627,44.841934945941034],[19.344013390405678,44.83801693073684],[19.348563800778834,44.8330229963143],[19.3515974082938,44.82672233796558],[19.349430545783093,44.822419054096144],[19.346721968544045,44.82449389167982],[19.34412173353121,44.82733706685218],[19.340763096639648,44.829949591100785],[19.337296117521873,44.830103264554054],[19.33328742187706,44.82702970375789],[19.330362157487627,44.82641497127395],[19.327111863721598,44.82434020293806],[19.32570340398894,44.81849971239188],[19.3206112770888,44.81396523980402],[19.31118542606663,44.813734663523974],[19.305118211935962,44.80904608580829],[19.301651231918868,44.801820319152455],[19.29796756565071,44.7958237818421],[19.29980939878476,44.79182574496224],[19.30544324041324,44.78882703473994],[19.308693534179326,44.78575127330265],[19.310535367313378,44.78182943957705],[19.308151818551607,44.77775352680385],[19.30262632004866,44.77721517643931],[19.296667448144262,44.77613846222033],[19.29850928127837,44.775215548258984],[19.307501759798413,44.7736004135283],[19.308043475426075,44.77052384000325],[19.30462850050492,44.76697634817998],[19.30164689808595,44.76412096650944],[19.301854916671118,44.76156084935377],[19.307679442452354,44.75895138280015],[19.315445477726655,44.756784942970796],[19.322310097333173,44.75496310176578],[19.32570340398894,44.749569944797145],[19.32671912079087,44.74283692838162],[19.32638054852356,44.73105226445051],[19.324687687187065,44.723475139865855],[19.320624819979514,44.7185434628106],[19.31740838388987,44.714573759071754],[19.310467652859927,44.70879915735526],[19.30284977729542,44.70350526665476],[19.298617624403903,44.697007556953224],[19.298956196671213,44.69267534549084],[19.297940479869283,44.68858351561681],[19.296416905116132,44.68437103449571],[19.28947617408619,44.67931565389438],[19.281011868303153,44.67413944937613],[19.27711828767889,44.667518049618366],[19.2774568599462,44.656199723738325],[19.275763998609705,44.64680624381316],[19.27034684233297,44.64259072568149],[19.26357539788637,44.64632448598627],[19.257481097075015,44.64813105760226],[19.252233227381566,44.64704712092794],[19.247662502222738,44.64391563569808],[19.24461535271638,44.638495358773866],[19.242922491379943,44.63211082695318],[19.240383199824862,44.62187001658805],[19.23665890488462,44.61596566967995],[19.236489618301277,44.61042226747372],[19.239198196439645,44.60487833556681],[19.236997477151874,44.60307041766572],[19.22954888817071,44.60114190967147],[19.219391720151805,44.59957494892478],[19.215667426110883,44.59427107844755],[19.2143131370417,44.58788168309326],[19.219222434467838,44.58233560000798],[19.217868145398654,44.578235982005026],[19.20720312032779,44.57401548432722],[19.19789238342679,44.5718448230802],[19.18519592475218,44.56846807833921],[19.179778768475444,44.56533235460455],[19.179778768475444,44.556647928958796],[19.185026638168893,44.55146077789266],[19.190274507862284,44.54760027343394],[19.187904501991227,44.54277428200754],[19.18028662732604,44.538671874307624],[19.177070190337076,44.533603796178284],[19.180117340742754,44.528776644626475],[19.18299520456509,44.52382839846189],[19.18282591888112,44.52032816601212],[19.178932338256857,44.51803479676852],[19.171991607226914,44.51549991458944],[19.164775786173664,44.514368234706296],[19.14890521260554,44.513047914829485],[19.13567973403252,44.50870950793751],[19.127744447248517,44.50248427393018],[19.128537976646328,44.493994247536534],[19.13171209064052,44.4870126333264],[19.134621696034515,44.478709084057016],[19.137531301428453,44.47210314454452],[19.139911887823416,44.4498261811334],[19.14096992582148,44.444727714912176],[19.14676797556166,44.428885640859676],[19.147952978047556,44.4203017801031],[19.147614405780246,44.41099109716146],[19.141350819284924,44.404460643144205],[19.13390223030376,44.4013160898657],[19.12763864380844,44.39720372757],[19.124760779986048,44.39260721615017],[19.1195129102926,44.38704253418564],[19.105123590281494,44.3865586233818],[19.100891436490656,44.38317113893697],[19.09970643400476,44.38038841619249],[19.102415012143126,44.37421755789404],[19.10444644574693,44.36889315769315],[19.112402892679427,44.36260006084416],[19.110032887707632,44.345290558512545],[19.110371459974942,44.333546237269104],[19.11832790690744,44.33039787536171],[19.12763864380844,44.328460337274805],[19.133732943720418,44.324463964140705],[19.1350872327896,44.320588432909915],[19.13356365803645,44.315743658243264],[19.13390223030376,44.30787004786447],[19.13627223617482,44.30157039765578],[19.14219725040283,44.29587590215124],[19.149815125068017,44.287514897894255],[19.154385851126165,44.28327335338258],[19.15760228721581,44.27987989743934],[19.166066592998902,44.2760014218282],[19.176054473535203,44.27406208869451],[19.186042354970766,44.2763650402145],[19.19078236671288,44.280243491543956],[19.192983086000652,44.28448525459089],[19.199585244763284,44.287514897894255],[19.20686454806048,44.28509119530247],[19.215667426110883,44.277819489477906],[19.21871457651656,44.2750317629056],[19.224025928453898,44.26827400883849],[19.228787100344448,44.259939385294444],[19.22931611934348,44.25425600990701],[19.24598022141015,44.25292980936325],[19.252857470196147,44.25368764197117],[19.26264432437614,44.260507692076374],[19.269786082661653,44.26694812485613],[19.276927840047847,44.26959986224392],[19.28592116572929,44.267326951677546],[19.29808860540487,44.26505395297761],[19.30364330579397,44.263538571947606],[19.31025604508045,44.26467511176702],[19.32030740875996,44.26751636418891],[19.32427505215196,44.26656929533675],[19.331416810437474,44.260128821188175],[19.334061905432634,44.25558217987373],[19.33564896332905,44.24781418677537],[19.335913472828565,44.23606551730984],[19.335119944330017,44.22526225025268],[19.33873843493086,44.22191852232203],[19.346864168446643,44.21585231633139],[19.347372027297297,44.211484261489545],[19.347541312981264,44.210270855715464],[19.34584845164477,44.20760127397966],[19.345340593693493,44.199834531838235],[19.35735990783354,44.18976051243777],[19.36379278091215,44.179441960178394],[19.37987496225975,44.17179292670227],[19.407595564283895,44.148255304438806],[19.414208302671057,44.14370002063947],[19.42108555145711,44.13876473280624],[19.432459462634142,44.13420871605945],[19.44383337381123,44.130221913510525],[19.450710622597228,44.13363918979684],[19.453620227991166,44.13686643573749],[19.456794341985358,44.144459258887764],[19.46208453377426,44.146736915176575],[19.472400406953284,44.14388983065123],[19.479542164339477,44.13724609982768],[19.481129222235893,44.13325950232422],[19.473987463950323,44.126424708733396],[19.469226292059773,44.12072844336302],[19.475310011447903,44.11408210630424],[19.478219616841898,44.11294265897658],[19.484567846628863,44.10705516536365],[19.489064509019897,44.10097713778475],[19.493032152411956,44.09546838555758],[19.496470776804983,44.08995911981759],[19.5062576300856,44.08520934053871],[19.51366389787063,44.082739304875076],[19.52159918465469,44.0789390486982],[19.528476433440687,44.07684880392924],[19.534560153728137,44.07437841842932],[19.546960362231005,44.063872430368406],[19.554916809163444,44.05718168388768],[19.562365399043983,44.05280187580598],[19.566766837619525,44.05012516784228],[19.5733689963821,44.04878676799501],[19.57895543834286,44.050855190714515],[19.57929401061017,44.05450517287551],[19.57675471905509,44.06216940309554],[19.57438471318403,44.06618360438989],[19.576077574520525,44.067643246338775],[19.580648299679353,44.068616320886576],[19.589959036580296,44.06691342941127],[19.592667613819344,44.064723926468105],[19.595714764225022,44.05985807349134],[19.59948645883304,44.055288673033886],[19.606637105118352,44.05365353108567],[19.620396680262616,44.051862608572605],[19.622780229024386,44.04937080032221],[19.619963307760486,44.04571076733811],[19.61606295614058,44.042284148894396],[19.611620887993638,44.03916886854847],[19.602520066348006,44.033483060494916],[19.59764462569899,44.02951046003977],[19.60230338009694,44.02522598459154],[19.607178819846695,44.02281096135681],[19.611837574244703,44.01860391304018],[19.617146387395906,44.014708231599684],[19.62007165088602,44.01089021471171],[19.61931324900729,44.00948761676017],[19.609995741110595,44.00917592343018],[19.603204794865462,44.00566302942531],[19.596478854315706,44.004815166586695],[19.589475554753108,44.001722855825165],[19.58240291656142,43.998480743191806],[19.573943486003145,43.99663515448884],[19.56569207403004,43.99394148890866],[19.559590190135225,43.98985087491798],[19.558342076825454,43.98615910216091],[19.55785670012665,43.98102017274283],[19.559520850606816,43.97737774938366],[19.56146235920056,43.97428400870007],[19.55868877536676,43.97293668398083],[19.55106142004854,43.97014213515149],[19.543581410553713,43.971137084808674],[19.53491396141027,43.96349519824486],[19.528630061028537,43.95639828015658],[19.522021130370945,43.953512477119205],[19.50804486897556,43.949300514007575],[19.49526038106177,43.946414367429156],[19.48323429502676,43.944152154298536],[19.469258032732057,43.94633636113423],[19.461674014843936,43.94859849152721],[19.448564497553548,43.95023653199041],[19.437513499648333,43.948364481635565],[19.430796226764528,43.94680439530663],[19.420611973863572,43.94672638991102],[19.40831503001465,43.94941751760439],[19.402051443519326,43.95563297058516],[19.395957143607347,43.96160406877283],[19.385122831953197,43.96172592151413],[19.380382820211025,43.96123850875023],[19.373611375764426,43.95941067446313],[19.369040650605598,43.960263670631946],[19.36108420277378,43.96404107953225],[19.353127754941966,43.969645824495274],[19.343647732357,43.97330080778613],[19.33315199297016,43.975980985334274],[19.321640536781388,43.98097554028902],[19.30623549996841,43.98694409069731],[19.28947617408619,43.98852748385633],[19.281350440570407,43.98706589217721],[19.2774568599462,43.98572606780385],[19.271023986867533,43.985360656169405],[19.2669611205593,43.989258265756405],[19.2588353861442,43.99656559282789],[19.250878939211702,44.00241080751283],[19.244107493865783,44.00642905755501],[19.24089105777614,44.00521143485986],[19.24122963004345,44.00143664478537],[19.24156820231076,43.99522598339246],[19.245800355202277,43.9882838871917],[19.246138927469588,43.98353356382296],[19.24986322240983,43.97183884108972],[19.254941805519934,43.96586877172649],[19.26255968108444,43.96001995885405],[19.268823267579762,43.95429243754603],[19.278134004480762,43.946858023678885],[19.286936882531165,43.940763548399104],[19.29387761356105,43.92954808067941],[19.30166477480958,43.92637810896264],[19.306743357919686,43.91991572013444],[19.31063693944327,43.90869632147809],[19.315376950286065,43.903695690703614],[19.332644134119562,43.901744110602294],[19.332474848435538,43.89808472602931],[19.32858126781133,43.8944251175252],[19.32536483172163,43.89125327341986],[19.319778389760927,43.88808126204066],[19.326888406474836,43.88332292661181],[19.334167709772032,43.88076058902999],[19.339923437416758,43.877954092707284],[19.34804917183186,43.87356105020234],[19.356005618764357,43.8716084826454],[19.355667046497047,43.865628347170514],[19.352281324723435,43.86147851372249],[19.352789182674712,43.85781665511462],[19.35888348348601,43.85134682259786],[19.363962066596173,43.84731808196398],[19.369379222872908,43.843411163494466],[19.376319953003474,43.83962609326966],[19.381906394964233,43.83657344171104],[19.39516361420948,43.82891823259041],[19.399131257601482,43.82472004349529],[19.40177635349596,43.81116932960094],[19.407595564283895,43.80219744645507],[19.412092226674986,43.79818829755192],[19.418969475460983,43.79570630809968],[19.426111232847177,43.793415150289036],[19.433517500632206,43.78883256936763],[19.44198180731462,43.78386771092619],[19.455736303987294,43.77794753325213],[19.46605217716632,43.77336376792363],[19.469564864327083,43.76989515114036],[19.470443036117274,43.76191809804186],[19.47958448643493,43.75592696745565],[19.484324497277782,43.75176950505869],[19.487540934266747,43.74565506393009],[19.5232603053189,43.720701670445806],[19.527492458210418,43.71531820277289],[19.52698459935982,43.7018574183852],[19.52969317749819,43.69108661415595],[19.533586758122453,43.6850883960127],[19.538326769864568,43.678599852201444],[19.543236067290707,43.674804340847686],[19.54120463368696,43.66904939741181],[19.537988197597315,43.664885903261904],[19.535787478309544,43.660354714098844],[19.52918531954691,43.65153628407228],[19.524106735537487,43.644676609837745],[19.52139815739912,43.639531340199255],[19.520551727180532,43.63218019096308],[19.517335291090887,43.62850427864959],[19.51174884913013,43.62593100621103],[19.508870985307794,43.627156387357445],[19.503623115614346,43.628749346605105],[19.501760967694565,43.62617608495839],[19.50345382903106,43.62225471168563],[19.506670265120704,43.61502401044976],[19.50847824147769,43.61161179824592],[19.509886702109668,43.606826530819774],[19.511403504967802,43.598274857698584],[19.51508717123602,43.59411626575309],[19.519204210006365,43.59121292773449],[19.51703734749566,43.58838792426337],[19.51194522059552,43.58626908375129],[19.505769663339322,43.58477800330229],[19.4981856454512,43.58179573178762],[19.4928768323,43.58046151019062],[19.487893049424713,43.577871465395845],[19.48442606940762,43.575752255262444],[19.479225599381948,43.57324050184775],[19.474675189008792,43.57394694359664],[19.4680662583512,43.578185416024155],[19.458315377952374,43.582815999159095],[19.45008130131106,43.58399320991873],[19.44217225404634,43.58289448119541],[19.437730185899397,43.57991211615132],[19.432692231461374,43.577385819799815],[19.42727507518464,43.573583912467654],[19.4223657777585,43.57333861968158],[19.414070757659374,43.57321597283891],[19.409669319083832,43.57530093229224],[19.40662216867821,43.57799900814774],[19.401712871252073,43.58290429100026],[19.397480718360498,43.58621513072376],[19.392740706618383,43.58940317521643],[19.390539987330612,43.59271365700971],[19.386984978973658,43.59957926317253],[19.3813985370129,43.60570860516805],[19.374288520299046,43.607792439569494],[19.368363506070978,43.605831186360206],[19.362777064110276,43.60227625084838],[19.356852049882264,43.59945666938984],[19.348895602050447,43.59639175737374],[19.340431296267354,43.5941849244947],[19.334167709772032,43.59197801067671],[19.324687687187065,43.59062930100151],[19.316054094820686,43.591610183463274],[19.306743357919686,43.58952578878416],[19.29946405552181,43.58891271734808],[19.294724043779638,43.5917327925344],[19.28609045141326,43.59295887065542],[19.27593328429367,43.59050668923237],[19.268315408729165,43.587686556489416],[19.2576503836583,43.583272171273734],[19.25612680890515,43.58069696349412],[19.257819669342325,43.57701790355344],[19.25646538117246,43.565488728022444],[19.260189675213383,43.55960063905832],[19.260528247480693,43.556779058406846],[19.25358751645075,43.54892700927411],[19.250878939211702,43.54365083971453],[19.250878939211702,43.53555163350114],[19.248847505607955,43.527696818953075],[19.232765324260356,43.52462825389085],[19.227856026834218,43.525364724002884],[19.219730292419115,43.52720585926306],[19.211604558903332,43.52732859963521],[19.197045953208203,43.52745133910804],[19.189766649911007,43.52499649029585],[19.18451878021756,43.523032539120436],[19.15540156702872,43.523646280551475],[19.13813438319528,43.52229604023012],[19.118158621223415,43.51419396607872],[19.097167142449734,43.511493033077045],[19.087348547597458,43.508178086149826],[19.072112796468446,43.50375787422655],[19.06144777139758,43.50289835077831],[19.05552275716957,43.50068809238161],[19.04773559502172,43.497372551901776],[19.040625578307868,43.497372551901776],[19.036731997683603,43.49946013557684],[19.03012983892097,43.501547646406834],[19.02454339696027,43.50719584481243],[19.025389827178856,43.510633620245414],[19.027251975098636,43.51247520516665],[19.033684847277925,43.51566715181764],[19.03876343128735,43.52008649229782],[19.029960553237004,43.526346669463294],[19.02301982220706,43.52880146431619],[19.015401946642555,43.53371075274907],[19.009307645831257,43.54119664920603],[19.005244779523025,43.54635033290157],[18.99881190644436,43.55138088501985],[18.994410467868875,43.5524850960104],[18.988824025908116,43.55150357592936],[18.984253300749288,43.54978587711656],[18.984422586433254,43.53825149001432],[18.987469736838932,43.532974385159775],[18.987131164571622,43.52696037761939],[18.980190433541736,43.520332000921144],[18.97443470589701,43.51689477857121],[18.96766326055109,43.51370289667142],[18.95987609930262,43.511984121370176],[18.955474659827757,43.51186134952172],[18.946502496093387,43.512229663268386],[18.942439628885836,43.51161580582482],[18.93668390124111,43.5101425211605],[18.93160531723163,43.5092830894431],[18.927542450923397,43.51087916843892],[18.923141011448593,43.50940586578815],[18.919755288775605,43.50498574379708],[18.919247430824328,43.500565297150786],[18.920432433310225,43.4978637544088],[18.929404597943915,43.49565331075172],[18.9338060365194,43.497372551901776],[18.937361045775674,43.500565297150786],[18.941762484351216,43.502529980374334],[18.95276608258871,43.49602172432316],[18.956321090945664,43.48595096406581],[18.95615180436232,43.47428152127526],[18.959706813618595,43.46383852982433],[18.962076818590333,43.4567116885936],[18.966816830332505,43.45167324222638],[18.973249702511794,43.44933821009039],[18.979513289007116,43.44982980290314],[18.983237583947414,43.45130455885834],[18.98679259230437,43.45167324222638],[18.99170188973045,43.448723713228844],[18.99762690395852,43.44528241335274],[19.00389049045384,43.442824222659794],[19.008291929928646,43.445405320099496],[19.011000507167694,43.44688018397335],[19.01438622984068,43.44331586853258],[19.01675623571174,43.43766169682988],[19.01895695499951,43.42856474676569],[19.02081910201997,43.42426165804915],[19.03012983892097,43.417376081540965],[19.03266913047605,43.41282625212989],[19.030637697771567,43.40803011729611],[19.027251975098636,43.405201449087656],[19.027590547365946,43.39905171406542],[19.03233055820874,43.39609962020137],[19.03876343128735,43.393762443182254],[19.038255572436753,43.39142517623094],[19.038255572436753,43.386627346175146],[19.040794864891154,43.380844842115835],[19.039271289238684,43.378260990952015],[19.0347005640798,43.3734621194813],[19.036393425416293,43.36866286759732],[19.04096415057512,43.36324787149215],[19.05145988996202,43.3527857136898],[19.05772347645734,43.34847724253075],[19.072451368735756,43.34503024544949],[19.076344949359964,43.34010562357571],[19.077022093894584,43.33518060330226],[19.080746388834825,43.32865433472983],[19.084132111507813,43.325821963113185],[19.083116394705883,43.32040314309063],[19.0756678048254,43.31523018332638],[19.07312851327032,43.312520361425584],[19.074821374606813,43.30808584758387],[19.07956138544961,43.30291183921008],[19.07939209976564,43.298723033641124],[19.073297799853606,43.29539642340626],[19.06601849655641,43.2940410857276],[19.056369187388157,43.29367144278291],[19.04688916480319,43.29096065950688],[19.040625578307868,43.286894258863015],[19.03351556159396,43.27802116894185],[19.02674411624804,43.26816066208494],[19.022173391089154,43.26199703343639],[19.018110524780923,43.2542299738343],[19.011677651702314,43.24979120889725],[19.00389049045384,43.24880477222251],[18.99576475693806,43.25139413353247],[18.98983974270999,43.25620265382946],[18.989331883859393,43.26175047530427],[18.98831616705752,43.2677908617589],[18.983914728481977,43.27087246069556],[18.975281136115598,43.27309111516291],[18.96394573750581,43.27540829036036],[18.952353023972933,43.28321701285489],[18.94834432922744,43.28873772786392],[18.946285809842323,43.292917363945264],[18.94791095672531,43.29733327171317],[18.949969475211162,43.29930455506121],[18.953978170855976,43.301827705584174],[18.956903435245408,43.30427190732274],[18.962428933748356,43.30766208793506],[18.96264561999942,43.31830445278831],[18.958203552751797,43.32461015993101],[18.95083622021542,43.32571359120931],[18.940803647870098,43.326678289471545],[18.927629124884277,43.32914986297584],[18.923676768168377,43.334193581168904],[18.919793750980887,43.340548068438636],[18.91681214856186,43.34397719778951],[18.908243832586834,43.3497082660237],[18.902488104942165,43.3500775681253],[18.897578807516027,43.34724619475611],[18.892330937822578,43.345768904511374],[18.884713062258072,43.34416846560225],[18.879465192564624,43.34355290124546],[18.87472518082251,43.34650755368074],[18.867445878424576,43.34687687556743],[18.855426563385265,43.34601512180046],[18.852040841611597,43.339736261219514],[18.85373370204877,43.33419555068417],[18.858135141523633,43.32840804729358],[18.846962257602172,43.32027998273509],[18.820722909134986,43.31017996393422],[18.802778580766926,43.30155666880529],[18.773322795310833,43.29317858192604],[18.762488483656625,43.28985166861969],[18.74657558889237,43.28566196282935],[18.72676911260453,43.27543294077765],[18.713395509395298,43.270625938536284],[18.70323834227571,43.26150391627277],[18.691896171770964,43.25583278155767],[18.68867973568132,43.24757170457059],[18.69088045586841,43.242269229841156],[18.703407627959734,43.23425298428782],[18.718135521137413,43.22376860963368],[18.71000978672231,43.219204259768844],[18.676829707225238,43.19798171548382],[18.66582610988712,43.17094930076968],[18.652283220094603,43.15366203417557],[18.644665344530097,43.08866758833858],[18.653468223479763,43.06777068766718],[18.657869662055305,43.052309815545584],[18.662609673797476,43.043773743863255],[18.659054664541202,43.036102637426836],[18.649236069688925,43.03313291954868],[18.638740330302028,43.030410552105366],[18.63027602451899,43.02496545389266],[18.614193843171392,43.0203862481269],[18.598111661823793,43.02001494593304],[18.5920038190211,43.021594201311416],[18.584636486484726,43.025712946095666],[18.57683578234554,43.02903942323087],[18.56643484319352,43.02808901969257],[18.557334021547888,43.02602976106465],[18.55007503303642,43.02373281521733],[18.54010746638653,43.0211189437843],[18.527214635347207,43.02080210363425],[18.52309759657686,43.018663388104926],[18.521472449693874,42.99418167194665],[18.51313002992697,42.989109805872886],[18.506954472670827,42.98609818678193],[18.498395365753595,42.98514711864465],[18.49005294598669,42.983879005311906],[18.485177506236994,42.98134269950606],[18.48203555559644,42.97769657633597],[18.480410408713453,42.953436427948816],[18.48398573185608,42.93947854509884],[18.48355235935395,42.92210607853275],[18.48550253561359,42.91552071191137],[18.49070300473994,42.909807535689254],[18.494603357259166,42.90504614976004],[18.496011817891144,42.8983795932437],[18.49633684726774,42.89353795091574],[18.508687961780083,42.88671138342363],[18.50186234577069,42.88186882558591],[18.487344367848323,42.877105282183095],[18.48268561434969,42.874246980413886],[18.485610878739124,42.87043570484394],[18.493194896627244,42.86702123714042],[18.494169984757036,42.86328892834143],[18.487994426601574,42.86090648664509],[18.480627094964518,42.85900046619861],[18.474993253336038,42.85630016991695],[18.469454211043058,42.85096376016946],[18.465729916102816,42.84823332490805],[18.461328477527275,42.84376508109369],[18.464037055665642,42.83842758766309],[18.4731785059833,42.833213777094215],[18.472670647132702,42.830234259303666],[18.467592064022597,42.82390230634644],[18.464037055665642,42.82030149551764],[18.458958471656217,42.81607958770286],[18.456080607833826,42.80924942112392],[18.458789185972194,42.80279111431855],[18.46115919094393,42.7913632285302],[18.46522205815154,42.783909123107605],[18.469115638775747,42.77583282892198],[18.476902800024277,42.76427568357599],[18.49061497640008,42.751473318039245],[18.499756426717795,42.742149542767265],[18.514315032412867,42.73580857410644],[18.534121508700707,42.72921825401926],[18.54224724221649,42.72461704903765],[18.54901868756241,42.72362214884316],[18.552742981603387,42.72523885289081],[18.558498710147433,42.72747729693975],[18.562561576455664,42.73021306428154],[18.566624443663216,42.732451328466084],[18.57170302767264,42.735062535207874],[18.575258036029595,42.73394346022258],[18.57661232509878,42.72648244351001],[18.575596608296905,42.72175666803588],[18.569671594068836,42.71727928621016],[18.564762296642698,42.71292596586068],[18.56239229077164,42.70620881618396],[18.561715146237077,42.68505748561455],[18.559175854681996,42.67983075358649],[18.556636563126915,42.67497696501499],[18.560360857167893,42.669375969325586],[18.563238720990228,42.66539273168928],[18.569901823210614,42.66228562977807],[18.57965270360944,42.656309996309346],[18.587020035246496,42.65105096333133],[18.588320152752885,42.64770407518296],[18.58160287986908,42.64340066810638],[18.56838501945316,42.642524011673856],[18.55007503303642,42.64228492151199],[18.54010746638653,42.63590884241921],[18.534148594482076,42.6296118227275],[18.53013989883732,42.62060358538719],[18.529923212586255,42.602981939165204],[18.538915692005617,42.596123300050294],[18.54942497428317,42.591257992962085],[18.553975384656326,42.58535530800111],[18.550725091789616,42.582962167969754],[18.544116161131967,42.58017005540381],[18.538482319503487,42.57865428496734],[18.53349853572888,42.578414949290504],[18.527973037225934,42.57969139484203],[18.524722743459904,42.58232398206616],[18.51616363744199,42.583600347578056],[18.504787610160122,42.58375989180564],[18.495470102263482,42.58264307591725],[18.490269632237812,42.57466523860995],[18.484202418107145,42.56540966972051],[18.473801478955124,42.561818777514645],[18.467625920799662,42.562536972503324],[18.461125334166866,42.5642127287345],[18.45202451252129,42.56205817614398],[18.446932385621153,42.55806806858652],[18.439131681481967,42.55719021065977],[18.43403955458183,42.55918532514272],[18.428730742329947,42.56317536075437],[18.42656387981924,42.56852160908505],[18.419521577558783,42.57330890538174],[18.413020990026723,42.57985094896219],[18.405978687766265,42.585993462428405],[18.397419581748352,42.59014131197205],[18.38788538760059,42.591896088034105],[18.377376105323037,42.59229489329476],[18.371606833888336,42.597887876924005],[18.36585110624361,42.608479271801],[18.355863224808047,42.61296449661427],[18.33639532078746,42.61682651463201],[18.328777446122274,42.61931801171693],[18.31625027313163,42.6195671562993],[18.313033837041985,42.61832142529357],[18.304738816942915,42.622058544566244],[18.301193804550508,42.62346628484124],[18.294073790972732,42.62629367421374],[18.287640918793443,42.624549832109096],[18.279515185277603,42.61894429394408],[18.266310867752395,42.613587419224075],[18.25801584765327,42.60623653888524],[18.252429405692567,42.603619913728096],[18.246663097523992,42.606672631836545],[18.23423114834884,42.616600718248606],[18.201167452815753,42.64267873463592],[18.190322560637696,42.649099256425586],[18.184503350749083,42.655324583962454],[18.18053570735708,42.65960413472311],[18.175510025067638,42.662327332240636],[18.168897286680476,42.6615492882691],[18.16334258539206,42.65960413472311],[18.158052394502477,42.65921509699916],[18.153555732111386,42.660965748770366],[18.149059068821032,42.66660640186399],[18.14456240642994,42.672441021635905],[18.138743196541327,42.68002520859653],[18.13054340025775,42.6839141756987],[18.119433998580234,42.684497500259454],[18.11520184568866,42.6860530045426],[18.108060087403146,42.690524861832955],[18.102769895614244,42.697329244848845],[18.098548323246575,42.70819915796483],[18.095839745108208,42.71130894075509],[18.089745445196172,42.71479171196796],[18.081450425097103,42.717652413128405],[18.06553753033279,42.72934260597651],[18.058596799302904,42.73692761581685],[18.05013249351981,42.74500898217883],[18.040313897768215,42.75408372348511],[18.02998744496466,42.75607253012322],[18.014074549301085,42.75731550200885],[18.008995966190923,42.760795690368866],[18.004763813299405,42.77993323293242],[18.00087023267514,42.78415760758759],[17.993929501645255,42.78602121061044],[17.985803768129472,42.78813322616753],[17.979032322783496,42.79285394205584],[17.97141444721899,42.79782272783666],[17.96464300277239,42.80043118085439],[17.95194654409778,42.804778357934936],[17.94483652648455,42.8098703760171],[17.93434078709771,42.81483779482841],[17.92756934265111,42.814713614641676],[17.919951467086605,42.81222994975241],[17.914365025125846,42.81247832091782],[17.908270725213868,42.81421688939798],[17.903192141204386,42.818190578032784],[17.892696401817545,42.82203984456322],[17.891511399331648,42.82564055466793],[17.89777498582697,42.83060670633449],[17.903869285739006,42.83445520034729],[17.905900719342753,42.83879998613048],[17.90149927986795,42.84215146891523],[17.89658998244181,42.84513041203894],[17.88727924644013,42.84984677880584],[17.875259931400763,42.859278431354596],[17.87051992055791,42.864862283267826],[17.865441336548486,42.87168630567851],[17.862732758410118,42.88136271591668],[17.858839177785853,42.891905795616026],[17.852406305606564,42.896246538946684],[17.84512700230937,42.900959000857256],[17.84207985190369,42.90678707446398],[17.835139120873805,42.9144743282277],[17.825828384872125,42.91720183259855],[17.81482478663463,42.91757375532461],[17.8107619203264,42.91658195599251],[17.806021908584285,42.91100278325189],[17.802805472494583,42.90381110539823],[17.799081177554342,42.90009094284278],[17.78756972136557,42.89500635765734],[17.781813993720903,42.89550243359048],[17.77673540971142,42.89984292421161],[17.771826112285282,42.905671103039026],[17.76810181824436,42.9091429474891],[17.762853948550912,42.91335849529838],[17.74795676968921,42.91893745400034],[17.729335296786587,42.920177154152384],[17.718331698549093,42.916334003011855],[17.711898826369804,42.91732580684055],[17.7042809508053,42.92129286297529],[17.697848078625952,42.92525966370255],[17.688097198227183,42.92591416150941],[17.677371229698565,42.91583809525196],[17.667945378676336,42.903538301451476],[17.661336448018687,42.891950444257645],[17.65396911638169,42.888378405439084],[17.650324453710596,42.89026764273757],[17.643321155047317,42.894839675510696],[17.639576816916644,42.8982938752622],[17.637149930724775,42.90205263761919],[17.63513908260262,42.905760381436494],[17.62979505829537,42.9107548086875],[17.624377902917956,42.9136064599702],[17.618114316422634,42.91868951181158],[17.612527874461875,42.92463986803551],[17.607957149303047,42.92897830730311],[17.60372499551221,42.93120938590448],[17.60000070147123,42.93306855616896],[17.596784265381586,42.93678672852474],[17.600508559422508,42.93938931526475],[17.60744929045245,42.941743941829486],[17.618432573904215,42.94542689313664],[17.633492267454244,42.94994725356298],[17.660903075516558,42.95121606746761],[17.670328926538787,42.954070801626244],[17.68127158131847,42.95795620021852],[17.714099545657575,42.968580322324044],[17.717458182549137,42.973178253773426],[17.714857947536302,42.97714171261998],[17.711282624393675,42.98062934376924],[17.707923988401376,42.98356197270692],[17.70434866525875,42.98784177347909],[17.699581568634528,42.99346846639668],[17.696114588617434,43.00020396943768],[17.693189324228,43.00487876774099],[17.68549019131933,43.00565621546201],[17.673132304911974,43.030163057778964],[17.667884435218582,43.05144389162234],[17.663652282327007,43.0596078328353],[17.65874298490087,43.06455514730226],[17.649262962315902,43.06851271199213],[17.64270143222535,43.08247592422458],[17.639992854086984,43.09284116838529],[17.629700258060495,43.097113353698376],[17.626940652389237,43.097976920498525],[17.616807427021172,43.101147921939116],[17.579754081685564,43.119972391612635],[17.528291100653803,43.1451944278806],[17.510414486739194,43.15404734600827],[17.489829294686274,43.16068619351307],[17.47693646364695,43.16598094756273],[17.46144339849411,43.17040606169047],[17.44475855806104,43.17522590984794],[17.42753200289968,43.181151432192905],[17.42276490537614,43.184785467575296],[17.4208147291165,43.18770833976811],[17.420489699739903,43.19134198484477],[17.42276490537614,43.1956072930422],[17.425798512891106,43.1975818715062],[17.428182061652876,43.20042515189931],[17.429590522284798,43.203584197752605],[17.430023894786984,43.20950696727277],[17.425690169765574,43.219850691556246],[17.42038135751369,43.22608766171629],[17.414422485609293,43.23050841952801],[17.40846361460416,43.23319229418905],[17.399471135184797,43.2367442997097],[17.39058699979023,43.24155890931627],[17.38321966815323,43.24511042740437],[17.376610738394902,43.246215301195264],[17.358409094204376,43.246294220302104],[17.347466439424693,43.24818824199383],[17.344216146557983,43.251581549548916],[17.33836561777906,43.256158269588525],[17.329589825510084,43.261602540424974],[17.32514775736314,43.2643639402437],[17.316662324706556,43.267128371677074],[17.31326468421787,43.27571119281737],[17.312293929920997,43.280103109371055],[17.31208591133577,43.286008979730696],[17.3113572869093,43.29011351522661],[17.3058025865202,43.29550423323383],[17.298660828234688,43.302434452987654],[17.28993201295208,43.31128858520009],[17.284112802164145,43.31898678191453],[17.280409668271602,43.325529482000036],[17.27776457237718,43.334187855185405],[17.27326790998609,43.34034416964778],[17.272738890987057,43.34534571503275],[17.27168085298905,43.35073153443284],[17.26850673809554,43.35438592507046],[17.264010075704505,43.35919399930367],[17.26162948930954,43.36342478882301],[17.260571451311478,43.36630924917256],[17.25977792281293,43.37053954316542],[17.257926355417,43.37361593502743],[17.25713282691845,43.376499910642394],[17.258984394314382,43.379191497889394],[17.260835960810994,43.3839976053053],[17.262158508308573,43.38784221784414],[17.25977792281293,43.39187879786829],[17.254223221524512,43.3961073076062],[17.24972655913342,43.40129643987888],[17.249197540134446,43.40552429221236],[17.254487731024028,43.40994400501188],[17.261893998809057,43.41378697089203],[17.270887324490502,43.416861168408275],[17.27776457237718,43.42454597871398],[17.282261235667534,43.42838801829248],[17.282790254666565,43.43338230524927],[17.280938687270634,43.43664757812326],[17.27776457237718,43.44432987662253],[17.273532419485605,43.45431540633098],[17.267977719096507,43.46391532293387],[17.262158508308573,43.46871470971615],[17.25501675092238,43.47370566828204],[17.24628793474045,43.478888149168824],[17.23517853306288,43.48368634704735],[17.218514430996265,43.48925177904641],[17.203153408802848,43.49618873742037],[17.19329418527849,43.498625110560454],[17.182026501122152,43.49956819631524],[17.171300532593534,43.49666030053248],[17.162849768801834,43.49280908876847],[17.157215927173354,43.488721818457236],[17.149198536783103,43.48675668647195],[17.140856116116936,43.48825019329183],[17.131321921969175,43.49194449674121],[17.121029325942686,43.4989394739776],[17.11127844554386,43.508055307106815],[17.102719339525947,43.51127695386839],[17.08018397121333,43.51261270791019],[17.07606693244304,43.51473413846975],[17.066424395169747,43.52274776070067],[17.057973632277367,43.52824668963308],[17.052340791594304,43.535003463439125],[17.05201476127229,43.53539454712069],[17.044105713108195,43.53594434765358],[17.035113234588152,43.54222742155832],[17.02850430482988,43.546782240408106],[17.02178703194602,43.550001818729015],[17.00531887776407,43.5518078489531],[17.00239361337458,43.55714709786031],[17.00109349586819,43.56177929887559],[16.99784320300148,43.565861621116994],[16.994701252360983,43.56853068304463],[16.98771528813012,43.57409137022063],[16.97072708748516,43.57645238826717],[16.959355394036265,43.58845698140465],[16.941179752843368,43.60988600823276],[16.92807023555298,43.618436029299346],[16.921136276418054,43.62965118765226],[16.917127580773297,43.63772794139146],[16.916152492643448,43.64596040824631],[16.909600326294083,43.65158652289978],[16.900094513850775,43.65966008044842],[16.88521585113068,43.675206094985356],[16.876979956060154,43.690374301632744],[16.86983797744074,43.697242854873934],[16.860130434472012,43.70210551615668],[16.842379498115406,43.70396024107231],[16.83572289709406,43.71588926507758],[16.831631861321398,43.72009894211254],[16.82490591987238,43.722203669563726],[16.810621963532867,43.72355666990444],[16.80646158823174,43.728467301924525],[16.805837531576856,43.73257588976554],[16.800800931517813,43.73966230557102],[16.795045202973768,43.74736716985905],[16.788781616478445,43.75311459766061],[16.782856602250433,43.757883321158374],[16.775915871220548,43.76155131134402],[16.766774420902834,43.765708094752824],[16.740744987691073,43.76727781641813],[16.735111145163273,43.77205030088072],[16.730560734790117,43.775570741996205],[16.729585646660325,43.77940387558846],[16.727635470400685,43.783002103564286],[16.72265168662608,43.785583307124],[16.714525953110297,43.792700595755946],[16.710192228088886,43.796532631275966],[16.706833592096643,43.801459172303],[16.709325483983946,43.80435234888182],[16.711275659344267,43.807714512015195],[16.71192571809746,43.814047376885014],[16.712367758265486,43.83704956798323],[16.7092474767897,43.84260103261164],[16.707028609183,43.844751460911255],[16.70682059059783,43.847551902098644],[16.70295355436309,43.85330005385447],[16.68737923096677,43.85818285095786],[16.67383634117425,43.86184468708268],[16.650136285161466,43.87673383499856],[16.641502692795086,43.87905230252181],[16.58798119327747,43.92168136360408],[16.581588948870944,43.92628544551695],[16.577155549289216,43.92810825169454],[16.572024418791955,43.93445018352918],[16.56751734494958,43.937545998049416],[16.55954329198937,43.94124079252862],[16.548652641406306,43.942279912388074],[16.541718682271437,43.94719442048614],[16.535868154391835,43.95390245913126],[16.533701291881187,43.95702221900024],[16.530667684366165,43.95936193120821],[16.527092361223538,43.960999674895106],[16.522650293975914,43.96388511370708],[16.51679976519705,43.969031764704255],[16.513441129204807,43.97558140305938],[16.511924325447296,43.98057111876216],[16.512791070451613,43.98540450621306],[16.51502727249067,43.99104815674707],[16.51766217636839,43.99503892350759],[16.518078214438106,43.997932060516234],[16.51641406395794,44.00287002203396],[16.512808404884026,44.00531391080841],[16.50823199151324,44.007707826954686],[16.500049919967864,44.01005177676814],[16.49810841137412,44.01025125718979],[16.494731627063004,44.01166455167777],[16.487113751498498,44.01653436347016],[16.479157303666682,44.01982126054281],[16.46459869797161,44.020186460836555],[16.442422215812655,44.02055165753302],[16.439036494039044,44.02237761043841],[16.434973626831436,44.02736826053683],[16.43294219322769,44.031019690606286],[16.431080046207228,44.0374699988414],[16.431926476425815,44.042946124564025],[16.43514291251546,44.04635323671255],[16.438020777237114,44.0512201994527],[16.438359349504424,44.06095292523736],[16.43666648816793,44.068737953293976],[16.4320957630091,44.07226520767324],[16.422954312691445,44.07421118859554],[16.41499786485963,44.07615710656529],[16.408734278364307,44.07700842459917],[16.399931400313903,44.07810295978385],[16.392821382700674,44.08053518614997],[16.39028209114565,44.084791341946925],[16.38841994412519,44.09001991488719],[16.388589229809156,44.098530555540776],[16.38097135514397,44.11092958233439],[16.3726763350449,44.11469739906579],[16.360657020005533,44.11785731726144],[16.35185414195513,44.120044854286675],[16.336618391725438,44.12138164344816],[16.330693377497425,44.11992332709991],[16.322059785131046,44.11797884984412],[16.314780481833793,44.118708036346845],[16.310886901209585,44.12040943674617],[16.311225473476895,44.125027275588366],[16.3095326121404,44.12830815259923],[16.309024754189124,44.13243936828229],[16.307839750803907,44.13778521911263],[16.30665474831801,44.141429839515524],[16.302422595426492,44.14288762436445],[16.297005439149757,44.146167509423094],[16.29158828377234,44.15041894108134],[16.28650969976286,44.15479152221104],[16.279907541000284,44.161835555666414],[16.274659671306836,44.164871517606514],[16.2685653713948,44.16827160964709],[16.265687507572466,44.17337137988534],[16.259254634493857,44.179441960178394],[16.251975331196604,44.18575470001946],[16.24537317333335,44.19073157700075],[16.236231722116315,44.19655762983081],[16.231999569224797,44.199591804818],[16.22709027179866,44.20481021901645],[16.222648204551035,44.20886812736222],[16.2172310482743,44.210343661231036],[16.212355608524547,44.210421319488376],[16.204338217234977,44.20956706876524],[16.197620944351172,44.20832449977587],[16.19036195583965,44.20762554398374],[16.183969711433065,44.20661592548464],[16.17909427168337,44.20762554398374],[16.174977232913022,44.20956706876524],[16.177035752298195,44.21065429515966],[16.181152791068484,44.21220743962169],[16.18472811331185,44.213605235193484],[16.189711897086454,44.21484769266692],[16.19361224870636,44.21515830321317],[16.198596032480964,44.21694427945499],[16.200979581242734,44.21826431514609],[16.204744503955737,44.2204626899013],[16.209823087965162,44.22264642459288],[16.224212407976324,44.22470876699606],[16.226920986114692,44.22810540743865],[16.224550980243578,44.2318657454079],[16.221165257570647,44.237202587729314],[16.221334544153933,44.239749546004816],[16.217610249213692,44.24253894531614],[16.216691884023305,44.24272994962752],[16.212362379520243,44.24363041381258],[16.20457521827177,44.24460058984539],[16.1998352065296,44.24460058984539],[16.19560305363808,44.24508567246585],[16.193910192301587,44.24835987470851],[16.193233047766967,44.25612021727426],[16.194248764568897,44.27175904634299],[16.194248764568897,44.28060708295055],[16.18815446465686,44.28884789101738],[16.187138747854988,44.29769335466466],[16.18476874198393,44.30120693575151],[16.18222945042885,44.306174054189285],[16.181383020210262,44.31138302011033],[16.183075880647436,44.322162898499016],[16.18900089487545,44.32628053082192],[16.197634487241828,44.33209316756569],[16.20643736529223,44.33754199166964],[16.2091459434306,44.34081104349491],[16.208455256005323,44.34740670735374],[16.202279698749123,44.35205518789667],[16.192962189953164,44.3574779487484],[16.18288628017774,44.36204817208551],[16.17573563479175,44.364371878159716],[16.165984754392923,44.36576605755755],[16.157317305249478,44.37018073865022],[16.15049168834082,44.374207877591516],[16.137382171949753,44.38148700282295],[16.132290045049615,44.38489394140231],[16.126222830918948,44.38946202615165],[16.12503105653809,44.39279108344181],[16.12784797780199,44.39457166375132],[16.13987406293768,44.394803910072426],[16.164792980012066,44.39635219100086],[16.16966842066114,44.40037752949945],[16.1702101362888,44.4058732172752],[16.169018361907945,44.40927873762371],[16.16403457813334,44.41392230786829],[16.15417535460898,44.41670827356802],[16.146699679846392,44.419726253563795],[16.142149268573917,44.42638073488308],[16.139115661058952,44.432106077133824],[16.138898974807887,44.43620631566898],[16.13987406293768,44.43775350122314],[16.143666072331428,44.44216275400794],[16.145616248591068,44.445566160050305],[16.145616248591068,44.447886550324085],[16.144316131084622,44.451985681793815],[16.14420778795909,44.458481829373],[16.143882758582492,44.46312149206324],[16.13998240606321,44.4686112829844],[16.138248916954012,44.471471955366496],[16.1342402213092,44.47518288907912],[16.129364780660126,44.48051694260289],[16.12633117404448,44.4860050976572],[16.126365030821546,44.49062808152081],[16.127211461939453,44.494130097326206],[16.130427898029097,44.49823564186141],[16.12467216948511,44.50487635186221],[16.120778588860844,44.50680805244974],[16.11502286121612,44.50922258915119],[16.109944277206694,44.51598275789803],[16.107743557918923,44.51924184433568],[16.106219983165715,44.523224925489956],[16.10016800355055,44.53096399729071],[16.085884487878843,44.5396371724176],[16.078478220093814,44.54680099556953],[16.072923518805396,44.55132506120265],[16.06393019402327,44.55490636393762],[16.055201378740662,44.55754507734349],[16.045414524560726,44.55924133002344],[16.039595314672056,44.55942980004528],[16.01975709681261,44.57507063730014],[16.020286116710963,44.58298367575611],[16.024253760103022,44.586374647771834],[16.034305122883154,44.59033053252813],[16.045679034060242,44.59711142165486],[16.054143339843336,44.60445649327261],[16.05996255063127,44.610859130244705],[16.06181411712788,44.6180141850067],[16.058904512633205,44.62987456825675],[16.054143339843336,44.63815657426653],[16.049117658453213,44.64530826466472],[16.044885505561695,44.6498246671747],[16.03774374727618,44.65584598980064],[16.030072969991636,44.65866827012462],[16.01896314563271,44.65942687525012],[15.993719199181726,44.66451288855899],[15.98591849504254,44.66782626257202],[15.982993230653108,44.67198697601816],[15.981259740644589,44.67830452453421],[15.982884887527575,44.688318739917975],[15.975842585267173,44.694788542757124],[15.965983361742815,44.70241273965627],[15.956882539197863,44.71011293016767],[15.950598638816189,44.712345793023985],[15.944856453162856,44.712499780340636],[15.939764327162038,44.71165284470305],[15.935863974642757,44.70988193930009],[15.931205221144069,44.70926595855718],[15.928713329256766,44.71026692288024],[15.927304868624844,44.71157585014544],[15.925679721741801,44.71427060660329],[15.924162917984347,44.71658029764268],[15.923052401846917,44.72227233080349],[15.919497392590642,44.72900774121433],[15.917127387618905,44.73514109328687],[15.919158820323332,44.73826765023193],[15.9218673984617,44.741273795149596],[15.918650962372055,44.74440002024477],[15.9150959540151,44.74584283587825],[15.909509512054399,44.74632376722815],[15.90087591968802,44.74632376722815],[15.891057324835742,44.74427978358517],[15.88479373834042,44.739590373097315],[15.880223013181535,44.733698010554804],[15.87514442917211,44.729368544722604],[15.870065846062005,44.727083418664904],[15.862447970497499,44.72624150664029],[15.85499938151628,44.728767204043265],[15.849074367288267,44.72972934553292],[15.844672927813406,44.72684287339996],[15.842980066476912,44.72407653540387],[15.839086485852704,44.71794200971601],[15.837224338832243,44.71661879222353],[15.831637896871484,44.71637820379112],[15.82842146078184,44.71709996549106],[15.825882169226759,44.719024620789696],[15.823342876772415,44.7217911998041],[15.820634299533367,44.724918478904726],[15.818602865929563,44.72828612790255],[15.81758714912769,44.73117252808976],[15.815047857572608,44.73285619475763],[15.798288531690446,44.73850814783282],[15.787792792303549,44.74379883604752],[15.777297052916708,44.75858614743282],[15.731970693892436,44.80748954820416],[15.72694501250237,44.81555853000219],[15.72429991660789,44.822500704443996],[15.727738541000917,44.82644048593971],[15.73170618439292,44.82812888034363],[15.738583433178974,44.83075517501135],[15.744402643067588,44.83394408555114],[15.749957344356005,44.8363825451184],[15.77905339559777,44.8375079531296],[15.785401625384736,44.840508934140075],[15.790691816274375,44.84519765394862],[15.79095632667321,44.849323411646196],[15.771879896639973,44.8636712459313],[15.7640927353915,44.876148629755505],[15.760368440451202,44.88202645925372],[15.75512057075781,44.900135994880316],[15.752073420352133,44.9108071560255],[15.748010554043901,44.918719323038374],[15.744794117954257,44.92195580411715],[15.743101256617763,44.92698996791273],[15.741577680965236,44.93034583219446],[15.739038389410211,44.93454038712923],[15.737514814657004,44.938015643607116],[15.738191959191624,44.94125103740549],[15.743439828885073,44.94364750852577],[15.747671981776591,44.94484570586468],[15.751057703550202,44.94760146603488],[15.75190413466811,44.95155515194875],[15.75190413466811,44.9545501875412],[15.752073420352133,44.958503394116406],[15.753258423737293,44.96305523441157],[15.75596700187566,44.96545079541795],[15.760876299301799,44.966768311208625],[15.765108452193374,44.96760671407867],[15.771033466421386,44.96784625570018],[15.77492704704565,44.96784625570018],[15.778482055402606,44.96820556633389],[15.780344202423066,44.97179854676557],[15.78135991922494,44.976109826507354],[15.781529205808226,44.97934307362402],[15.780513489006353,44.981139242781865],[15.778989913353882,44.98377352342942],[15.774419188195054,44.988083902050505],[15.775942763847524,44.9917953582692],[15.782375636026813,44.996344556356235],[15.785761358699801,44.99981607075512],[15.786269216651078,45.00304798057988],[15.78322206714472,45.00580094565714],[15.778651341086572,45.00843409225962],[15.772218468907283,45.01214423007224],[15.766801313529868,45.01585412776586],[15.763246304273594,45.01908513287265],[15.760876299301799,45.02291423570347],[15.753427709421317,45.02997347399668],[15.748856984262488,45.037869217590355],[15.74699483724197,45.041816680195666],[15.74614840612412,45.04552465513876],[15.746656264974717,45.04827557785569],[15.745725191464487,45.052431612129226],[15.741757548072428,45.055608233433304],[15.742022057571944,45.060653092866005],[15.751015382354069,45.06719206346304],[15.757363612141035,45.07018105740991],[15.763182822029648,45.07671893802865],[15.767414974921223,45.08531044302259],[15.768208504319091,45.09259353336495],[15.769531051816614,45.10024911480485],[15.774821242706253,45.105476726369886],[15.781963000991766,45.10977047742563],[15.782492019990798,45.114810556062366],[15.780640453494186,45.12097004782947],[15.776937319601643,45.12619576182499],[15.771382618313226,45.13086117390412],[15.767150465421707,45.13515301569919],[15.76371184102868,45.14149688557285],[15.761860274532069,45.14970555186977],[15.761860274532069,45.15642085433899],[15.7623892935311,45.16294886220027],[15.762124784031585,45.167797754862534],[15.761860274532069,45.17208681595383],[15.763447331529164,45.177494302719936],[15.768473013818607,45.184392763815026],[15.772969676209641,45.18849415528109],[15.778259867099223,45.191103977966236],[15.7864596633828,45.19184961936452],[15.794130440667345,45.194272887583736],[15.799420632456247,45.1965096579944],[15.802065727451406,45.19874634117076],[15.803388275848306,45.20191482540889],[15.803388275848306,45.20415129544597],[15.806562390741817,45.207133119997536],[15.81053003413382,45.207505836824964],[15.816084734522917,45.2063876782488],[15.822697473809399,45.206014954226816],[15.82437890835996,45.20934404119458],[15.823728849606766,45.21140490691096],[15.819286781459823,45.21384731719996],[15.820478555840737,45.216518583365996],[15.823837192732299,45.216671223498224],[15.829254348109714,45.21613698123673],[15.838355169755346,45.21621330220216],[15.850428656357451,45.2197668644493],[15.859908678942418,45.21762044442801],[15.86617226543774,45.2165472033908],[15.879207296379661,45.21559319447039],[15.884963024923707,45.21905140070163],[15.88597874082626,45.223940228658705],[15.89190375505433,45.22739792677294],[15.895797336577857,45.22620564067785],[15.908324508669182,45.227159471532445],[15.916958101035561,45.227994060377625],[15.922375257312297,45.221674726707306],[15.925930265669251,45.21809743315009],[15.927792412689769,45.212969587876216],[15.934563857136368,45.21070364885435],[15.93981172682976,45.212254037793684],[15.947260316710299,45.21511618416463],[15.954878192274805,45.21809743315009],[15.959448917433633,45.221555486496584],[15.963681070325208,45.22501332940169],[15.968251795484036,45.22811328619923],[15.974007523128762,45.23097463397221],[15.979932537356774,45.23228603707099],[15.98788898518859,45.228947860655296],[15.993306141465325,45.225207082041265],[15.99648025545946,45.22129464982828],[16.00044789885152,45.21849989055755],[16.004680051743037,45.216450312232155],[16.01367337742448,45.215332329923115],[16.020021606312127,45.212350936146834],[16.024782779101997,45.20731947841125],[16.026369836099093,45.20377855703481],[16.02584081710006,45.19893272746344],[16.02372474020467,45.194272887583736],[16.02107964520951,45.19073115322021],[16.017112001817452,45.18644349686991],[16.01446690592303,45.182155516763714],[16.019492587313096,45.17954528398769],[16.027427874097157,45.177307846280144],[16.03456963238267,45.17898593265471],[16.043033939065083,45.180477523918626],[16.04594354355976,45.178613028768325],[16.045679034060242,45.173205648122234],[16.044091977063147,45.16761126694644],[16.05784647373582,45.161643319983284],[16.06604627091872,45.15586127637687],[16.072923518805396,45.14933245642777],[16.08191684448684,45.14336259570729],[16.08879409237352,45.13571279690808],[16.093819774662904,45.12974150986287],[16.093819774662904,45.12656900925242],[16.089852131270902,45.12190324643774],[16.087736054375455,45.11817036117327],[16.088265073374487,45.11275724465116],[16.09223271676649,45.10865039969622],[16.100961532948418,45.10416986844473],[16.10889681973248,45.101929470168955],[16.118948182512668,45.09931556186376],[16.129264055691692,45.09707497383101],[16.139050909871628,45.09240679903462],[16.14619266725782,45.08960571123464],[16.15359893504285,45.08624422439152],[16.163385789222843,45.078213205674956],[16.17158558550642,45.07485104883688],[16.17634675739697,45.07074147713752],[16.175553228898423,45.06737888053095],[16.173437152902352,45.06233461375149],[16.177404796294354,45.05934520971368],[16.18155230589423,45.055929623253576],[16.184938028567217,45.05186353917105],[16.185445886518494,45.047916769043695],[16.185784458785804,45.04301282708036],[16.192048045281126,45.03607482549285],[16.195772340221367,45.03021275481484],[16.201020209914816,45.02997347399668],[16.20880737116329,45.032246603098315],[16.2184566803316,45.0310502304838],[16.22742884406597,45.02590554450535],[16.233861717144578,45.02183732633159],[16.239448159105336,45.01908513287265],[16.247066033770466,45.019563784441175],[16.251806045512637,45.02123903435398],[16.255191768185625,45.02052107588702],[16.25993177902842,45.01872614059897],[16.266872510058363,45.01693114955299],[16.27821468056311,45.01669181297683],[16.286001841811583,45.012263907353486],[16.29158828377234,45.0091522018127],[16.29429686191071,45.00340706998037],[16.29698177438945,45.001556048472935],[16.30106830635731,44.998738727010675],[16.30919403987309,45.00125249760475],[16.31968977925993,45.002090396854385],[16.329677660695552,45.00352676614739],[16.33577196060753,45.005322178076085],[16.34135840256829,45.00687815630192],[16.34762198906361,45.00376615758216],[16.357609870499175,45.00340706998037],[16.36268845360928,45.007237222319986],[16.36488917379637,45.01740981910791],[16.364042742678464,45.03212696628651],[16.36488917379637,45.04289321365093],[16.372845620728867,45.04983038876151],[16.377754918155006,45.053179068359384],[16.383002787848454,45.057005891408835],[16.386246310618787,45.06229605172149],[16.388954887857835,45.067729197044855],[16.392855240377116,45.07453903085167],[16.397730680126813,45.08004751508082],[16.40195606202269,45.08448452004461],[16.403256179529137,45.08991555555849],[16.400114228888583,45.09358694967801],[16.393721985381376,45.0982523392741],[16.39025500536428,45.105058534423904],[16.390471691615346,45.109340668936795],[16.395563818515484,45.11331664904418],[16.40390623828233,45.11798042615578],[16.410081795538474,45.12195580371741],[16.42617074878109,45.12524770371863],[16.439882924257574,45.1303834531339],[16.460705117347345,45.14029533646067],[16.472216573536116,45.1479370575492],[16.476448726427634,45.15808463519778],[16.474545949835772,45.16696526683364],[16.47205405884779,45.172999486637025],[16.467503647575313,45.17849847222675],[16.47162068634566,45.18384419895068],[16.47877133173165,45.18712775324326],[16.485163575238857,45.18926578079123],[16.49249190417811,45.19505332195331],[16.49374001658856,45.20502056124997],[16.499287184256218,45.20878225179956],[16.504903691452228,45.21244599718506],[16.510589538176703,45.21405796989944],[16.51488859253459,45.21513259319465],[16.520643779686736,45.21806328139536],[16.526121606926665,45.22011467275399],[16.53478472313651,45.222318615211975],[16.54594406416726,45.22002919938808],[16.552336307674523,45.21720546036374],[16.558186836453388,45.215068483224],[16.562845589952076,45.214534226573335],[16.567070971847897,45.216060661170616],[16.57097132346786,45.219723937110075],[16.574113274108356,45.22277648704528],[16.579313744134026,45.2258288733039],[16.587114448273212,45.22758392096125],[16.592964976152757,45.23010193815395],[16.603582601555843,45.23010193815395],[16.611383306594348,45.22720239347575],[16.617125491348418,45.22476055695421],[16.62470950923654,45.22140285985415],[16.629693293011087,45.218731823015275],[16.63565216401622,45.213542021647015],[16.64551138754058,45.20850440805202],[16.666218466509065,45.20175826872918],[16.685347797363022,45.19746398707338],[16.69431996199671,45.19388517186326],[16.699567831690104,45.194123766498706],[16.70566213160214,45.1972254068271],[16.71277214921537,45.201400424889755],[16.715650013037703,45.203547457349316],[16.720220738196588,45.20724493540547],[16.72953147509753,45.20712566551708],[16.73951935563383,45.20593295494194],[16.74747580346559,45.20044616146123],[16.75983368987295,45.19555531362687],[16.76829799655536,45.19364657542917],[16.793183055953307,45.19221498063689],[16.804355939874768,45.18923237457449],[16.81248167339055,45.186726864253444],[16.823823842996035,45.18255076970229],[16.83296529421301,45.183147373652446],[16.83825379257854,45.18613507077697],[16.839770595436676,45.19140372740014],[16.839878938562208,45.19873322006208],[16.83825379257854,45.20484040905768],[16.83337835192947,45.21033631896603],[16.83673698882103,45.21338937342091],[16.841612428570784,45.21613698123673],[16.845404437964476,45.21865550564712],[16.846054496717727,45.2212502323124],[16.84421266358362,45.224073771687245],[16.84193745794738,45.22811805530404],[16.84377929108149,45.23048344675374],[16.848763074856095,45.23147535490375],[16.852555083350467,45.229567822696936],[16.857213837748475,45.2294915197179],[16.860897503117314,45.23252447072781],[16.867499661879947,45.23014008919381],[16.876471826513637,45.22727869915269],[16.879180404652004,45.23276290348525],[16.880196121453878,45.24170340658702],[16.884766846612706,45.245875160110586],[16.89136900537534,45.248854795712305],[16.898140449821938,45.24623272426089],[16.90321903383142,45.24527921356491],[16.90626618333772,45.249569885342],[16.906435469921064,45.25386023336313],[16.907959044674215,45.259818511715025],[16.91219119756579,45.2637506327855],[16.918793356328365,45.26827819318413],[16.92759623437877,45.270541837136136],[16.93809197376561,45.26756333917683],[16.948587713152506,45.26363148160766],[16.957729163470162,45.259103551587714],[16.959083452539346,45.25421774715136],[16.952481293776714,45.249569885342],[16.94537127706286,45.24539840341362]]]}}]}